tleArray_g = [ {"id": 21212, "Line1": "1 21212U 91009BF  21275.08965632  .00000021  00000-0  35225-3 0  9996", "Line2": "2 21212  74.1525 264.4070 0231483 109.3218 319.9580 12.06858493344464"}, {"id": 21234, "Line1": "1 21234U 91009CT  21274.82140306 -.00000021  00000-0 -42529-4 0  9992", "Line2": "2 21234  74.0100 196.4591 0128086 220.5630 200.2544 12.32560729374765"}, {"id": 21249, "Line1": "1 21249U 91009BG  21274.82732844  .00000021  00000-0  31873-3 0  9999", "Line2": "2 21249  74.0720 160.8446 0121923 110.9410 318.2218 12.22209569363862"}, {"id": 21250, "Line1": "1 21250U 91009BH  21274.37090834 -.00000012  00000-0  24410-4 0  9998", "Line2": "2 21250  74.0589 248.5341 0142803 239.3790 274.6084 12.18684366359815"}, {"id": 21251, "Line1": "1 21251U 91009BJ  21274.82110348  .00000105  00000-0  91440-3 0  9990", "Line2": "2 21251  73.9545  59.2989 0147928 171.9559 310.4176 12.35958713378842"}, {"id": 21252, "Line1": "1 21252U 91009BK  21274.06457872 -.00000009  00000-0  48762-4 0  9997", "Line2": "2 21252  74.1029 128.1099 0125539 354.3873 160.0405 12.24724971366386"}, {"id": 21253, "Line1": "1 21253U 91009BL  21274.77045744 -.00000044  00000-0 -29148-3 0  9993", "Line2": "2 21253  74.1164  33.6364 0148317 299.7532 175.2041 12.14558389355542"}, {"id": 21254, "Line1": "1 21254U 91009BM  21274.90434528  .00000010  00000-0  17852-3 0  9991", "Line2": "2 21254  73.8876 245.7559 0187887 116.9770 273.2773 12.39332609383229"}, {"id": 21255, "Line1": "1 21255U 90111C   21274.74717285  .00000376  00000-0  11567-3 0  9993", "Line2": "2 21255  74.0404  14.9559 0014316 233.0686 250.0378 14.44877858616736"}, {"id": 21256, "Line1": "1 21256U 91009BN  21274.97652917  .00000031  00000-0  62303-3 0  9998", "Line2": "2 21256  73.9820 355.0658 0248087 311.2370 225.4482 11.84021212318062"}, {"id": 21257, "Line1": "1 21257U 91007D   21274.65863671  .00000117  00000-0  10254-3 0  9996", "Line2": "2 21257  82.9209 155.4789 0033746 353.3022  65.3951 13.77123198537409"}, {"id": 21268, "Line1": "1 21268U 75052D   21274.86152510 -.00000233  00000-0 -53138-3 0  9995", "Line2": "2 21268  99.8408  65.3026 0199165 269.9766 222.4774 13.06168518449270"}, {"id": 21269, "Line1": "1 21269U 75052E   21274.88552781  .00000100  00000-0  31941-3 0  9991", "Line2": "2 21269  99.7378 228.4809 0119175 119.9546 305.4493 13.23151846468096"}, {"id": 21270, "Line1": "1 21270U 75052F   21274.49027462  .00000284  00000-0  12754-2 0  9996", "Line2": "2 21270  99.4397 248.0566 0449929 294.3062 185.9566 12.58764681392607"}, {"id": 21271, "Line1": "1 21271U 75052G   21275.09616420  .00000200  00000-0  67193-3 0  9998", "Line2": "2 21271  99.5574 114.3357 0244037 294.7781 188.1031 13.01781465444321"}, {"id": 21272, "Line1": "1 21272U 75052H   21274.78550757 -.00000076  00000-0 -11732-3 0  9995", "Line2": "2 21272  99.8982 205.3740 0308757 147.5902 273.1178 12.92874481367405"}, {"id": 21273, "Line1": "1 21273U 75052J   21274.63992625 -.00000014  00000-0  55185-4 0  9996", "Line2": "2 21273  99.9065 156.6170 0036756 102.4918 313.2430 13.37665399263451"}, {"id": 21275, "Line1": "1 21275U 75052L   21274.90189654 -.00000001  00000-0  69019-4 0  9995", "Line2": "2 21275 100.0243 156.5967 0034388 101.5403 273.0114 13.51462127500003"}, {"id": 21276, "Line1": "1 21276U 75052M   21274.81148098 -.00000026  00000-0  37358-4 0  9991", "Line2": "2 21276 100.1388 172.8528 0045459 254.4443 146.3539 13.35330276482230"}, {"id": 21277, "Line1": "1 21277U 75052N   21274.66675689 -.00000074  00000-0 -80714-4 0  9994", "Line2": "2 21277  99.7448 156.3801 0133692 310.6354 103.1334 13.18735410463306"}, {"id": 21278, "Line1": "1 21278U 75052P   21274.72922448  .00000052  00000-0  29402-3 0  9990", "Line2": "2 21278  99.8024 266.5003 0390475  15.8762 158.0366 12.76952768417030"}, {"id": 21279, "Line1": "1 21279U 75052Q   21274.84561778  .00000025  00000-0  92895-4 0  9996", "Line2": "2 21279  99.4301 124.2306 0056295 118.7029 308.7786 13.57054971505801"}, {"id": 21280, "Line1": "1 21280U 75052R   21274.88382156 -.00000015  00000-0  39820-4 0  9992", "Line2": "2 21280  99.4999 139.6979 0050191 223.0102 203.6984 13.55605613504325"}, {"id": 21281, "Line1": "1 21281U 75052S   21274.90711042 -.00000003  00000-0  77460-4 0  9995", "Line2": "2 21281  99.8059 235.5823 0057845  95.1882 328.4479 13.33930384480473"}, {"id": 21282, "Line1": "1 21282U 75052T   21274.80241083  .00000006  00000-0  10393-3 0  9991", "Line2": "2 21282  99.6780 296.1081 0100777  46.2636 128.5549 13.24543415470212"}, {"id": 21283, "Line1": "1 21283U 75052U   21274.65233752 -.00000122  00000-0 -25081-3 0  9990", "Line2": "2 21283  99.7729 166.7609 0242482 192.8007 224.3338 12.97499972439735"}, {"id": 21284, "Line1": "1 21284U 75052V   21274.89213170  .00000019  00000-0  12480-3 0  9991", "Line2": "2 21284  99.7922  43.3056 0077897 142.4533 330.1538 13.30899175476846"}, {"id": 21285, "Line1": "1 21285U 75052W   21274.67252778 -.00000028  00000-0  28807-4 0  9997", "Line2": "2 21285  99.8693 160.7920 0019119 200.8740 214.9279 13.41054884488047"}, {"id": 21286, "Line1": "1 21286U 75052X   21275.07661385 -.00000022  00000-0  38978-4 0  9995", "Line2": "2 21286  99.7193 138.9953 0053890  10.9841 145.7679 13.33324049480468"}, {"id": 21287, "Line1": "1 21287U 75052Y   21274.70263237 -.00000059  00000-0 -43639-4 0  9990", "Line2": "2 21287  99.7865 168.7173 0130812 330.8523  82.8437 13.17835182463046"}, {"id": 21288, "Line1": "1 21288U 75052Z   21274.67626597 -.00000013  00000-0  84281-4 0  9996", "Line2": "2 21288  99.6491  72.2265 0349483 337.9500  33.7807 12.75491885415797"}, {"id": 21289, "Line1": "1 21289U 75052AA  21275.09287662  .00000534  00000-0  16772-2 0  9995", "Line2": "2 21289  99.9838  24.1256 0243775 287.9822 247.8112 12.99500771441517"}, {"id": 21290, "Line1": "1 21290U 75052AB  21274.62676622  .00000026  00000-0  24518-3 0  9997", "Line2": "2 21290  99.5314 144.9961 0512858 127.9538 263.5972 12.43029003379169"}, {"id": 21291, "Line1": "1 21291U 75052AC  21275.02336031  .00000108  00000-0  13741-3 0  9997", "Line2": "2 21291  99.8133 343.3751 0139755 220.0090 262.6521 13.81263155530499"}, {"id": 21292, "Line1": "1 21292U 75052AD  21274.82016714  .00000129  00000-0  20585-3 0  9995", "Line2": "2 21292  99.9722 113.9275 0226781  62.4447 312.7261 13.57412745504074"}, {"id": 21293, "Line1": "1 21293U 75052AE  21274.54195816  .00000007  00000-0  14820-3 0  9996", "Line2": "2 21293  99.9314 201.6065 0271541 212.8519 324.9870 12.91285843431499"}, {"id": 21294, "Line1": "1 21294U 75052AF  21274.75245264  .00000627  00000-0  20790-2 0  9993", "Line2": "2 21294  99.8889 204.5952 0251325  80.6196 356.3568 12.94099490434167"}, {"id": 21295, "Line1": "1 21295U 75052AG  21274.88201464  .00000041  00000-0  15133-3 0  9998", "Line2": "2 21295  99.8586 128.9552 0018744 196.0315 173.5725 13.42055742487076"}, {"id": 21296, "Line1": "1 21296U 75052AH  21274.84991730 -.00000122  00000-0 -20478-3 0  9997", "Line2": "2 21296  99.6154 235.2419 0236375 299.8000 114.2183 13.09837058451134"}, {"id": 21297, "Line1": "1 21297U 75052AJ  21275.10629053  .00000007  00000-0  10011-3 0  9996", "Line2": "2 21297  99.8596 162.6221 0070323 139.6693  27.6818 13.32749347477453"}, {"id": 21317, "Line1": "1 21317U 75052AK  21274.75493477  .00001323  00000-0  24988-2 0  9997", "Line2": "2 21317 100.0843 209.9583 0225077 102.5716 289.9096 13.31049061451149"}, {"id": 21318, "Line1": "1 21318U 75052AL  21274.48658285  .00003354  00000-0  12579-2 0  9997", "Line2": "2 21318  99.3853  97.2731 0168502 155.7286 260.8082 14.24851437542522"}, {"id": 21319, "Line1": "1 21319U 75052AM  21274.85706375  .00000095  00000-0  35680-3 0  9991", "Line2": "2 21319  99.6894 227.5390 0236024 196.8562 222.2282 13.05792403446069"}, {"id": 21320, "Line1": "1 21320U 75052AN  21275.08976938  .00000090  00000-0  14154-3 0  9991", "Line2": "2 21320  99.7204 120.4930 0128164 237.2160 241.6878 13.72470781519857"}, {"id": 21324, "Line1": "1 21324U 75052AS  21274.88600500  .00001663  00000-0  40478-2 0  9995", "Line2": "2 21324  99.5867  59.5391 0316065 281.3710 236.7172 13.06528827441316"}, {"id": 21325, "Line1": "1 21325U 75052AT  21274.66812351  .00001137  00000-0  90123-3 0  9990", "Line2": "2 21325  99.7465 151.7379 0120335  68.7035   4.3501 13.90314777523321"}, {"id": 21326, "Line1": "1 21326U 75052AU  21274.68552390  .00000085  00000-0  23441-3 0  9997", "Line2": "2 21326  99.9830 171.5617 0030303 268.8340 146.5954 13.41086180485432"}, {"id": 21327, "Line1": "1 21327U 75052AV  21274.86271160 -.00000019  00000-0  53653-4 0  9998", "Line2": "2 21327  99.7518   1.7430 0276653 130.8217 347.1659 12.89703309429509"}, {"id": 21329, "Line1": "1 21329U 75052AX  21274.88870506  .00001851  00000-0  98148-3 0  9992", "Line2": "2 21329  99.7038 126.1562 0216600 153.4915 223.0710 14.03678036524128"}, {"id": 21330, "Line1": "1 21330U 75052AY  21274.69325627 -.00000251  00000-0 -32807-3 0  9997", "Line2": "2 21330 100.1195 171.7898 0306393 116.2067 302.4777 13.32937350476122"}, {"id": 21331, "Line1": "1 21331U 75052AZ  21274.64057676 -.00000015  00000-0  53908-4 0  9992", "Line2": "2 21331  99.8844 158.3204 0025920 320.7504  93.5699 13.39491160486642"}, {"id": 21332, "Line1": "1 21332U 91009CP  21273.52034968  .00000111  00000-0  12098-2 0  9997", "Line2": "2 21332  74.1971  95.5306 0142415 191.0868 197.7776 12.17201691309152"}, {"id": 21333, "Line1": "1 21333U 75052BB  21274.45845125 -.00000002  00000-0  68810-4 0  9991", "Line2": "2 21333  99.6573 101.5004 0004197  47.9389  16.2046 13.45156241492911"}, {"id": 21335, "Line1": "1 21335U 75052BD  21274.74311431  .00004146  00000-0  26960-2 0  9993", "Line2": "2 21335  99.1228 196.7173 0064138  52.1914 308.5035 14.02035226502898"}, {"id": 21336, "Line1": "1 21336U 75052BE  21274.70997271  .00001844  00000-0  37396-2 0  9999", "Line2": "2 21336  99.2108 316.0205 0161739 140.1663 345.5296 13.30102000461860"}];